[{"OBJECT_NAME":"EOSSAT-1","OBJECT_ID":"2023-001AW","EPOCH":"2026-03-09T17:40:07.010400","MEAN_MOTION":15.32339828,"ECCENTRICITY":0.00112629,"INCLINATION":97.3357,"RA_OF_ASC_NODE":130.2294,"ARG_OF_PERICENTER":110.3168,"MEAN_ANOMALY":249.9285,"EPHEMERIS_TYPE":0,"CLASSIFICATION_TYPE":"U","NORAD_CAT_ID":55053,"ELEMENT_SET_NO":999,"REV_AT_EPOCH":17668,"BSTAR":0.00024844399,"MEAN_MOTION_DOT":7.695e-5,"MEAN_MOTION_DDOT":0},{"OBJECT_NAME":"STARLINK-35026","OBJECT_ID":"2025-198Y","EPOCH":"2026-03-09T22:36:41.553504","MEAN_MOTION":15.30185718,"ECCENTRICITY":0.00015757,"INCLINATION":53.1596,"RA_OF_ASC_NODE":270.1828,"ARG_OF_PERICENTER":53.9969,"MEAN_ANOMALY":306.1177,"EPHEMERIS_TYPE":0,"CLASSIFICATION_TYPE":"U","NORAD_CAT_ID":65514,"ELEMENT_SET_NO":999,"REV_AT_EPOCH":2865,"BSTAR":0.00068971661,"MEAN_MOTION_DOT":0.00020115,"MEAN_MOTION_DDOT":0}]
